TERRA
1 25994U 99068A   26222.18321715  .00000174  00000+0  44396-4 0  9994
2 25994  97.9420 269.5786 0003556  72.4405 332.1453 14.61140687417490
AQUA
1 27424U 02022A   26222.18385742  .00000348  00000+0  79041-4 0  9996
2 27424  98.4328 192.5591 0001719  94.8658 324.9009 14.62161193291165
LANDSAT 9
1 49260U 21088A   26222.00000000  .00000000  00000+0  00000+0 0  9990
2 49260  98.2200 291.6891 0001280  93.5663 266.5682 14.57108666705763
SENTINEL-1A
1 39634U 14016A   26222.19537106  .00000186  00000+0  48865-4 0  9992
2 39634  98.1589 228.9012 0001412  83.6800 276.4561 14.59380130657894
